IRIDIUM 150             
1 43257U 18030J   25193.93360356  .00000049  00000+0  10286-4 0  9991
2 43257  86.3941  72.2989 0001902  83.9203 276.2210 14.34217848381530
IRIDIUM 143             
1 43258U 18030K   25194.40295468  .00000069  00000+0  17421-4 0  9996
2 43258  86.3945  72.1821 0001657  84.8896 275.2489 14.34218065381566
IRIDIUM 161             
1 43478U 18047C   25193.51721248  .00000228  00000+0  61743-4 0  9992
2 43478  86.4478 230.3517 0002595  91.1578 268.9920 14.43277868376145
IRIDIUM 152             
1 43479U 18047D   25194.51521136  .00000017  00000+0 -82398-6 0  9996
2 43479  86.3954 229.7951 0002309  89.4449 270.7011 14.34217679373950
IRIDIUM 147             
1 43480U 18047E   25194.45178566  .00000002  00000+0 -62052-5 0  9994
2 43480  86.3957 229.8208 0002291  95.1765 264.9692 14.34217542373933
IRIDIUM 110             
1 43481U 18047F   25194.17905462  .00000061  00000+0  14773-4 0  9997
2 43481  86.3956 230.0178 0002833  91.0457 269.1063 14.34218105373887
IRIDIUM 162             
1 43482U 18047G   25193.51090625  .00000237  00000+0  64553-4 0  9997
2 43482  86.4477 230.2494 0002663  88.0417 272.1089 14.43276509376138
IRIDIUM 160             
1 43569U 18061A   25193.49697279  .00000039  00000+0  67995-5 0  9998
2 43569  86.3983 198.7108 0002536  89.5313 270.6173 14.34218163364681
